ISS (ZARYA)             
1 25544U 98067A   26101.16675691  .00005918  00000+0  11600-3 0  9994
2 25544  51.6326 271.7779 0006464 298.5374  61.4964 15.48869271561365
CSS (TIANHE)            
1 48274U 21035A   26101.20634149  .00021188  00000+0  23654-3 0  9997
2 48274  41.4683  10.0690 0004786 183.4306 176.6502 15.62258168282697
HTV-X1                  
1 66174U 25241A   26101.19041786  .00004906  00000+0  16493-3 0  9998
2 66174  51.6361 276.3648 0007383 299.5391  60.4853 15.32613719 25925
SZ-21 MODULE            
1 66515U 25246C   26101.13588019  .00032766  00000+0  25255-3 0  9992
2 66515  41.4754   3.2372 0004196 256.1188 103.9188 15.71251716 23177
POISK                   
1 36086U 09060A   26101.16675691  .00005918  00000+0  11600-3 0  9992
2 36086  51.6326 271.7779 0006464 298.5374  61.4964 15.48869271560570
ISS (NAUKA)             
1 49044U 21066A   26101.16675691  .00005918  00000+0  11600-3 0  9990
2 49044  51.6326 271.7779 0006464 298.5374  61.4964 15.48869271560613
FREGAT DEB              
1 49271U 11037PF  26100.98879895  .00003799  00000+0  56935-2 0  9994
2 49271  51.6392 203.7553 0950788 133.4539 234.9499 12.40984828216703
CSS (WENTIAN)           
1 53239U 22085A   26101.20634149  .00021188  00000+0  23654-3 0  9990
2 53239  41.4683  10.0690 0004786 183.4306 176.6502 15.62258168282762
CSS (MENGTIAN)          
1 54216U 22143A   26101.20634149  .00021188  00000+0  23654-3 0  9991
2 54216  41.4683  10.0690 0004786 183.4306 176.6502 15.62258168282689
TIANZHOU-9              
1 64786U 25149A   26101.20634149  .00021188  00000+0  23654-3 0  9993
2 64786  41.4683  10.0690 0004786 183.4306 176.6502 15.62258168282682
PROGRESS-MS 32          
1 65586U 25204A   26101.16675691  .00005918  00000+0  11600-3 0  9997
2 65586  51.6326 271.7779 0006464 298.5374  61.4964 15.48869271554503
YOTSUBA-KULOVER         
1 65941U 98067XN  26101.11289455  .01260269  10242-2  12946-2 0  9991
2 65941  51.6094 246.4563 0010996 307.3778  52.6234 16.10147042 28662
BOTAN                   
1 65943U 98067XQ  26100.70317049  .00874507  41010-3  11666-2 0  9999
2 65943  51.6153 249.0102 0010664 301.9268  58.0706 16.05937236 28596
HRC MONOBLOCK CAMERA    
1 66052U 98067XR  26101.15927537  .00049085  00000+0  47372-3 0  9999
2 66052  51.6265 261.2198 0003894 260.6472  99.4084 15.65968139 27473
SHENZHOU-22             
1 66645U 25272A   26101.20634149  .00021188  00000+0  23654-3 0  9996
2 66645  41.4683  10.0690 0004786 183.4306 176.6502 15.62258168282688
SOYUZ-MS 28             
1 66664U 25275A   26101.16675691  .00005918  00000+0  11600-3 0  9993
2 66664  51.6326 271.7779 0006464 298.5374  61.4964 15.48869271560856
