[{"OBJECT_NAME":"ISS (ZARYA)","OBJECT_ID":"1998-067A","EPOCH":"2026-04-11T04:00:07.797024","MEAN_MOTION":15.48869271,"ECCENTRICITY":0.00064647,"INCLINATION":51.6326,"RA_OF_ASC_NODE":271.7779,"ARG_OF_PERICENTER":298.5374,"MEAN_ANOMALY":61.4964,"EPHEMERIS_TYPE":0,"CLASSIFICATION_TYPE":"U","NORAD_CAT_ID":25544,"ELEMENT_SET_NO":999,"REV_AT_EPOCH":56136,"BSTAR":0.00011599994,"MEAN_MOTION_DOT":5.918e-5,"MEAN_MOTION_DDOT":0},{"OBJECT_NAME":"POISK","OBJECT_ID":"2009-060A","EPOCH":"2026-04-11T04:00:07.797024","MEAN_MOTION":15.48869271,"ECCENTRICITY":0.00064647,"INCLINATION":51.6326,"RA_OF_ASC_NODE":271.7779,"ARG_OF_PERICENTER":298.5374,"MEAN_ANOMALY":61.4964,"EPHEMERIS_TYPE":0,"CLASSIFICATION_TYPE":"U","NORAD_CAT_ID":36086,"ELEMENT_SET_NO":999,"REV_AT_EPOCH":56057,"BSTAR":0.00011599994,"MEAN_MOTION_DOT":5.918e-5,"MEAN_MOTION_DDOT":0},{"OBJECT_NAME":"CSS (TIANHE)","OBJECT_ID":"2021-035A","EPOCH":"2026-04-11T04:57:07.904736","MEAN_MOTION":15.62258168,"ECCENTRICITY":0.00047868,"INCLINATION":41.4683,"RA_OF_ASC_NODE":10.069,"ARG_OF_PERICENTER":183.4306,"MEAN_ANOMALY":176.6502,"EPHEMERIS_TYPE":0,"CLASSIFICATION_TYPE":"U","NORAD_CAT_ID":48274,"ELEMENT_SET_NO":999,"REV_AT_EPOCH":28269,"BSTAR":0.0002365448,"MEAN_MOTION_DOT":0.00021188,"MEAN_MOTION_DDOT":0},{"OBJECT_NAME":"ISS (NAUKA)","OBJECT_ID":"2021-066A","EPOCH":"2026-04-11T04:00:07.797024","MEAN_MOTION":15.48869271,"ECCENTRICITY":0.00064647,"INCLINATION":51.6326,"RA_OF_ASC_NODE":271.7779,"ARG_OF_PERICENTER":298.5374,"MEAN_ANOMALY":61.4964,"EPHEMERIS_TYPE":0,"CLASSIFICATION_TYPE":"U","NORAD_CAT_ID":49044,"ELEMENT_SET_NO":999,"REV_AT_EPOCH":56061,"BSTAR":0.00011599994,"MEAN_MOTION_DOT":5.918e-5,"MEAN_MOTION_DDOT":0},{"OBJECT_NAME":"FREGAT DEB","OBJECT_ID":"2011-037PF","EPOCH":"2026-04-10T23:43:52.229280","MEAN_MOTION":12.40984828,"ECCENTRICITY":0.09507887,"INCLINATION":51.6392,"RA_OF_ASC_NODE":203.7553,"ARG_OF_PERICENTER":133.4539,"MEAN_ANOMALY":234.9499,"EPHEMERIS_TYPE":0,"CLASSIFICATION_TYPE":"U","NORAD_CAT_ID":49271,"ELEMENT_SET_NO":999,"REV_AT_EPOCH":21670,"BSTAR":0.005693483,"MEAN_MOTION_DOT":3.799e-5,"MEAN_MOTION_DDOT":0},{"OBJECT_NAME":"CSS (WENTIAN)","OBJECT_ID":"2022-085A","EPOCH":"2026-04-11T04:57:07.904736","MEAN_MOTION":15.62258168,"ECCENTRICITY":0.00047868,"INCLINATION":41.4683,"RA_OF_ASC_NODE":10.069,"ARG_OF_PERICENTER":183.4306,"MEAN_ANOMALY":176.6502,"EPHEMERIS_TYPE":0,"CLASSIFICATION_TYPE":"U","NORAD_CAT_ID":53239,"ELEMENT_SET_NO":999,"REV_AT_EPOCH":28276,"BSTAR":0.0002365448,"MEAN_MOTION_DOT":0.00021188,"MEAN_MOTION_DDOT":0},{"OBJECT_NAME":"CSS (MENGTIAN)","OBJECT_ID":"2022-143A","EPOCH":"2026-04-11T04:57:07.904736","MEAN_MOTION":15.62258168,"ECCENTRICITY":0.00047868,"INCLINATION":41.4683,"RA_OF_ASC_NODE":10.069,"ARG_OF_PERICENTER":183.4306,"MEAN_ANOMALY":176.6502,"EPHEMERIS_TYPE":0,"CLASSIFICATION_TYPE":"U","NORAD_CAT_ID":54216,"ELEMENT_SET_NO":999,"REV_AT_EPOCH":28268,"BSTAR":0.0002365448,"MEAN_MOTION_DOT":0.00021188,"MEAN_MOTION_DDOT":0},{"OBJECT_NAME":"TIANZHOU-9","OBJECT_ID":"2025-149A","EPOCH":"2026-04-11T04:57:07.904736","MEAN_MOTION":15.62258168,"ECCENTRICITY":0.00047868,"INCLINATION":41.4683,"RA_OF_ASC_NODE":10.069,"ARG_OF_PERICENTER":183.4306,"MEAN_ANOMALY":176.6502,"EPHEMERIS_TYPE":0,"CLASSIFICATION_TYPE":"U","NORAD_CAT_ID":64786,"ELEMENT_SET_NO":999,"REV_AT_EPOCH":28268,"BSTAR":0.0002365448,"MEAN_MOTION_DOT":0.00021188,"MEAN_MOTION_DDOT":0},{"OBJECT_NAME":"PROGRESS-MS 32","OBJECT_ID":"2025-204A","EPOCH":"2026-04-11T04:00:07.797024","MEAN_MOTION":15.48869271,"ECCENTRICITY":0.00064647,"INCLINATION":51.6326,"RA_OF_ASC_NODE":271.7779,"ARG_OF_PERICENTER":298.5374,"MEAN_ANOMALY":61.4964,"EPHEMERIS_TYPE":0,"CLASSIFICATION_TYPE":"U","NORAD_CAT_ID":65586,"ELEMENT_SET_NO":999,"REV_AT_EPOCH":55450,"BSTAR":0.00011599994,"MEAN_MOTION_DOT":5.918e-5,"MEAN_MOTION_DDOT":0},{"OBJECT_NAME":"YOTSUBA-KULOVER","OBJECT_ID":"1998-067XN","EPOCH":"2026-04-11T02:42:34.089120","MEAN_MOTION":16.10147042,"ECCENTRICITY":0.00109962,"INCLINATION":51.6094,"RA_OF_ASC_NODE":246.4563,"ARG_OF_PERICENTER":307.3778,"MEAN_ANOMALY":52.6234,"EPHEMERIS_TYPE":0,"CLASSIFICATION_TYPE":"U","NORAD_CAT_ID":65941,"ELEMENT_SET_NO":999,"REV_AT_EPOCH":2866,"BSTAR":0.0012945549,"MEAN_MOTION_DOT":0.01260269,"MEAN_MOTION_DDOT":0.0010242392},{"OBJECT_NAME":"BOTAN","OBJECT_ID":"1998-067XQ","EPOCH":"2026-04-10T16:52:33.930336","MEAN_MOTION":16.05937236,"ECCENTRICITY":0.00106648,"INCLINATION":51.6153,"RA_OF_ASC_NODE":249.0102,"ARG_OF_PERICENTER":301.9268,"MEAN_ANOMALY":58.0706,"EPHEMERIS_TYPE":0,"CLASSIFICATION_TYPE":"U","NORAD_CAT_ID":65943,"ELEMENT_SET_NO":999,"REV_AT_EPOCH":2859,"BSTAR":0.0011665811,"MEAN_MOTION_DOT":0.00874507,"MEAN_MOTION_DDOT":0.00041009903},{"OBJECT_NAME":"HRC MONOBLOCK CAMERA","OBJECT_ID":"1998-067XR","EPOCH":"2026-04-11T03:49:21.391968","MEAN_MOTION":15.65968139,"ECCENTRICITY":0.00038946,"INCLINATION":51.6265,"RA_OF_ASC_NODE":261.2198,"ARG_OF_PERICENTER":260.6472,"MEAN_ANOMALY":99.4084,"EPHEMERIS_TYPE":0,"CLASSIFICATION_TYPE":"U","NORAD_CAT_ID":66052,"ELEMENT_SET_NO":999,"REV_AT_EPOCH":2747,"BSTAR":0.00047371797,"MEAN_MOTION_DOT":0.00049085,"MEAN_MOTION_DDOT":0},{"OBJECT_NAME":"HTV-X1","OBJECT_ID":"2025-241A","EPOCH":"2026-04-11T04:34:12.103104","MEAN_MOTION":15.32613719,"ECCENTRICITY":0.00073835,"INCLINATION":51.6361,"RA_OF_ASC_NODE":276.3648,"ARG_OF_PERICENTER":299.5391,"MEAN_ANOMALY":60.4853,"EPHEMERIS_TYPE":0,"CLASSIFICATION_TYPE":"U","NORAD_CAT_ID":66174,"ELEMENT_SET_NO":999,"REV_AT_EPOCH":2592,"BSTAR":0.00016492757,"MEAN_MOTION_DOT":4.906e-5,"MEAN_MOTION_DDOT":0},{"OBJECT_NAME":"SZ-21 MODULE","OBJECT_ID":"2025-246C","EPOCH":"2026-04-11T03:15:40.048416","MEAN_MOTION":15.71251716,"ECCENTRICITY":0.00041963,"INCLINATION":41.4754,"RA_OF_ASC_NODE":3.2372,"ARG_OF_PERICENTER":256.1188,"MEAN_ANOMALY":103.9188,"EPHEMERIS_TYPE":0,"CLASSIFICATION_TYPE":"U","NORAD_CAT_ID":66515,"ELEMENT_SET_NO":999,"REV_AT_EPOCH":2317,"BSTAR":0.00025254905,"MEAN_MOTION_DOT":0.00032766,"MEAN_MOTION_DDOT":0},{"OBJECT_NAME":"SHENZHOU-22","OBJECT_ID":"2025-272A","EPOCH":"2026-04-11T04:57:07.904736","MEAN_MOTION":15.62258168,"ECCENTRICITY":0.00047868,"INCLINATION":41.4683,"RA_OF_ASC_NODE":10.069,"ARG_OF_PERICENTER":183.4306,"MEAN_ANOMALY":176.6502,"EPHEMERIS_TYPE":0,"CLASSIFICATION_TYPE":"U","NORAD_CAT_ID":66645,"ELEMENT_SET_NO":999,"REV_AT_EPOCH":28268,"BSTAR":0.0002365448,"MEAN_MOTION_DOT":0.00021188,"MEAN_MOTION_DDOT":0},{"OBJECT_NAME":"SOYUZ-MS 28","OBJECT_ID":"2025-275A","EPOCH":"2026-04-11T04:00:07.797024","MEAN_MOTION":15.48869271,"ECCENTRICITY":0.00064647,"INCLINATION":51.6326,"RA_OF_ASC_NODE":271.7779,"ARG_OF_PERICENTER":298.5374,"MEAN_ANOMALY":61.4964,"EPHEMERIS_TYPE":0,"CLASSIFICATION_TYPE":"U","NORAD_CAT_ID":66664,"ELEMENT_SET_NO":999,"REV_AT_EPOCH":56085,"BSTAR":0.00011599994,"MEAN_MOTION_DOT":5.918e-5,"MEAN_MOTION_DDOT":0}]
